ONEWEB-0323             
1 49106U 21075AH  24202.53794476 -.00000034  00000+0 -13013-3 0  9999
2 49106  87.8951 129.3911 0002048  83.0098 277.1264 13.12444574143178
ONEWEB-0329             
1 49107U 21075AJ  24202.54320727  .00000102  00000+0  22963-3 0  9993
2 49107  87.9192 144.6013 0002031  86.0986 274.0378 13.17650851141847
ONEWEB-0330             
1 49108U 21075AK  24202.54481687  .00000050  00000+0  95308-4 0  9993
2 49108  87.9192 144.6019 0001915  86.7495 273.3856 13.17648551141887
ONEWEB-0292             
1 49186U 21083A   24202.44400730 -.00000192  00000+0 -56101-3 0  9993
2 49186  87.8922  98.9382 0001992  78.6154 281.5199 13.13469903139464
ONEWEB-0303             
1 49187U 21083B   24202.45514571  .00000089  00000+0  19354-3 0  9996
2 49187  87.9148 114.1618 0002110  81.9043 278.2328 13.18684730138150
ONEWEB-0306             
1 49188U 21083C   24202.29391238  .00000052  00000+0  99459-4 0  9997
2 49188  87.9147 114.1810 0001817  74.2256 285.9077 13.18687142138176
ONEWEB-0307             
1 49189U 21083D   24202.43844906 -.00000274  00000+0 -78643-3 0  9998
2 49189  87.8923  98.9394 0001478  75.7396 284.3898 13.13471224139462
